     2              NAVIGATION DATA                         RINEX VERSION / TYPE
CCRINEXN V1.6.0 UX  CDDIS               11-MAR-04 07:36     PGM / RUN BY / DATE 
IGS BROADCAST EPHEMERIS FILE                                COMMENT             
    0.2049D-07  0.0000D+00 -0.1192D-06  0.5960D-07          ION ALPHA           
    0.1229D+06 -0.1638D+05 -0.2621D+06  0.6554D+05          ION BETA            
    0.279396772385D-08-0.621724893790D-14   319488     1260 DELTA-UTC: A0,A1,T,W
    13                                                      LEAP SECONDS        
                                                            END OF HEADER       
 1 04  2 29 12  0  0.0 0.332523137331D-03 0.181898940355D-11 0.000000000000D+00
    0.108000000000D+03-0.593750000000D+02 0.411195699380D-08-0.101533474534D+01
   -0.301934778690D-05 0.541498640087D-02 0.574998557568D-05 0.515359563065D+04
    0.432000000000D+05-0.819563865662D-07-0.176030648717D+01 0.931322574616D-07
    0.977773984257D+00 0.279062500000D+03-0.168012959703D+01-0.798676125209D-08
    0.102861427449D-09 0.100000000000D+01 0.126000000000D+04 0.000000000000D+00
    0.400000000000D+01 0.000000000000D+00-0.325962901115D-08 0.364000000000D+03
    0.360180000000D+05 0.400000000000D+01 0.000000000000D+00 0.000000000000D+00
 3 04  2 29 12  0  0.0 0.897692516446D-04 0.306954461848D-11 0.000000000000D+00
    0.123000000000D+03 0.198750000000D+02 0.538165273887D-08 0.899744973852D+00
    0.124052166939D-05 0.546366057824D-02 0.740587711334D-05 0.515366988182D+04
    0.432000000000D+05-0.745058059692D-07 0.128371695192D+01 0.838190317154D-07
    0.928428208213D+00 0.217750000000D+03 0.554722670312D+00-0.839820696189D-08
   -0.374658463172D-09 0.100000000000D+01 0.126000000000D+04 0.000000000000D+00
    0.280000000000D+01 0.000000000000D+00-0.419095158577D-08 0.379000000000D+03
    0.360180000000D+05 0.400000000000D+01 0.000000000000D+00 0.000000000000D+00
 4 04  2 29 12  0  0.0-0.763577409089D-04-0.909494701773D-11 0.000000000000D+00
    0.177000000000D+03 0.638750000000D+02 0.436839624695D-08-0.201301218796D+01
    0.325590372086D-05 0.669045560062D-02 0.699050724506D-05 0.515360027504D+04
    0.432000000000D+05-0.447034835815D-07 0.242752531658D+01-0.391155481339D-07
    0.961007984857D+00 0.249250000000D+03-0.824730205209D-01-0.797676083554D-08
   -0.550022910662D-10 0.000000000000D+00 0.126000000000D+04 0.000000000000D+00
    0.000000000000D+00 0.000000000000D+00-0.605359673500D-08 0.433000000000D+03
    0.387900000000D+05 0.000000000000D+00 0.000000000000D+00 0.000000000000D+00
 5 04  2 29 12  0  0.0 0.197174958885D-04 0.159161572810D-11 0.000000000000D+00
    0.250000000000D+02 0.178125000000D+01 0.528986320118D-08-0.224137192561D+01
    0.203028321266D-06 0.508698110934D-02 0.749714672565D-05 0.515354760742D+04
    0.432000000000D+05 0.763684511185D-07 0.237240395020D+00-0.484287738800D-07
    0.936227959298D+00 0.222375000000D+03 0.815699448059D+00-0.818641242551D-08
    0.156792245312D-09 0.000000000000D+00 0.126000000000D+04 0.000000000000D+00
    0.100000000000D+01 0.000000000000D+00-0.419095158577D-08 0.250000000000D+02
    0.364800000000D+05 0.000000000000D+00 0.000000000000D+00 0.000000000000D+00
 6 04  2 29 12  0  0.0-0.130711123347D-05-0.909494701773D-12 0.000000000000D+00
    0.240000000000D+02 0.305312500000D+02 0.512235622384D-08-0.105675915353D+01
    0.155344605446D-05 0.626364443451D-02 0.759772956371D-05 0.515355506516D+04
    0.432000000000D+05 0.000000000000D+00 0.133615915792D+01 0.132247805595D-06
    0.935914997234D+00 0.217500000000D+03-0.202954421848D+01-0.827784480546D-08
   -0.380015829185D-09 0.000000000000D+00 0.126000000000D+04 0.000000000000D+00
    0.280000000000D+01 0.000000000000D+00-0.465661287308D-08 0.792000000000D+03
    0.360000000000D+05 0.400000000000D+01 0.000000000000D+00 0.000000000000D+00
 7 04  2 29 12  0  0.0 0.612088944763D-03-0.773070496507D-11 0.000000000000D+00
    0.390000000000D+02 0.275625000000D+02 0.515842915499D-08 0.101060364633D+01
    0.139139592648D-05 0.126344905002D-01 0.781565904617D-05 0.515374551392D+04
    0.432000000000D+05-0.203028321266D-06 0.130807257909D+01-0.149011611938D-07
    0.937586106110D+00 0.221562500000D+03-0.184900444941D+01-0.844035157452D-08
   -0.365015204348D-09 0.000000000000D+00 0.126000000000D+04 0.000000000000D+00
    0.000000000000D+00 0.000000000000D+00-0.186264514923D-08 0.390000000000D+02
    0.364800000000D+05 0.000000000000D+00 0.000000000000D+00 0.000000000000D+00
 9 04  2 29 12  0  0.0-0.322777777910D-04-0.170530256582D-11 0.000000000000D+00
    0.238000000000D+03-0.517812500000D+02 0.477198448659D-08-0.135015280029D+01
   -0.253506004810D-05 0.152984588640D-01 0.835023820400D-05 0.515372479057D+04
    0.432000000000D+05 0.344589352608D-06-0.770974202216D+00 0.229105353355D-06
    0.951051101084D+00 0.210812500000D+03 0.102425882358D+01-0.796961768085D-08
    0.247153152064D-09 0.000000000000D+00 0.126000000000D+04 0.000000000000D+00
    0.100000000000D+01 0.000000000000D+00-0.558793544769D-08 0.238000000000D+03
    0.361800000000D+05 0.000000000000D+00 0.000000000000D+00 0.000000000000D+00
10 04  2 29 12  0  0.0 0.401521101594D-04 0.568434188608D-12 0.000000000000D+00
    0.145000000000D+03 0.164375000000D+02 0.409088468748D-08 0.218782499702D+01
    0.879168510437D-06 0.600948755164D-02 0.395067036152D-05 0.515366685677D+04
    0.432000000000D+05-0.119209289551D-06-0.282049000715D+01 0.577419996262D-07
    0.980774256613D+00 0.315500000000D+03 0.250735407610D+00-0.804640659370D-08
    0.657170230921D-10 0.100000000000D+01 0.126000000000D+04 0.000000000000D+00
    0.200000000000D+01 0.000000000000D+00-0.232830643654D-08 0.145000000000D+03
    0.360180000000D+05 0.400000000000D+01 0.000000000000D+00 0.000000000000D+00
11 04  2 29 12  0  0.0 0.997781753540D-04 0.261479726760D-11 0.000000000000D+00
    0.650000000000D+02 0.537500000000D+02 0.554665961207D-08-0.443604228937D+00
    0.276789069176D-05 0.278374610934D-02 0.667199492455D-05 0.515369406891D+04
    0.432000000000D+05 0.745058059692D-07 0.230483714181D+01-0.130385160446D-07
    0.908098764199D+00 0.223125000000D+03 0.558137406378D-01-0.858571477234D-08
   -0.221794952936D-09 0.100000000000D+01 0.126000000000D+04 0.000000000000D+00
    0.200000000000D+01 0.000000000000D+00-0.121071934700D-07 0.650000000000D+02
    0.430080000000D+05 0.400000000000D+01 0.000000000000D+00 0.000000000000D+00
13 04  2 29 12  0  0.0-0.309157185257D-04 0.227373675443D-12 0.000000000000D+00
    0.120000000000D+02-0.627187500000D+02 0.398838041777D-08 0.237185196196D+01
   -0.324472784996D-05 0.207465642598D-02 0.586919486523D-05 0.515371099853D+04
    0.432000000000D+05-0.372529029846D-07-0.177792961905D+01-0.242143869400D-07
    0.981980954831D+00 0.276531250000D+03 0.654205279259D+00-0.784675542029D-08
    0.111790370803D-09 0.100000000000D+01 0.126000000000D+04 0.000000000000D+00
    0.200000000000D+01 0.000000000000D+00-0.111758708954D-07 0.268000000000D+03
    0.360180000000D+05 0.400000000000D+01 0.000000000000D+00 0.000000000000D+00
14 04  2 29 12  0  0.0-0.181570649147D-04-0.113686837722D-12 0.000000000000D+00
    0.210000000000D+03-0.712187500000D+02 0.417695970142D-08 0.492567520660D+00
   -0.371597707272D-05 0.157582643442D-02 0.522844493389D-05 0.515358136940D+04
    0.432000000000D+05-0.223517417908D-07-0.178672667503D+01-0.186264514923D-08
    0.976447729059D+00 0.283562500000D+03-0.140880470879D+01-0.798783272530D-08
    0.921466954226D-10 0.000000000000D+00 0.126000000000D+04 0.000000000000D+00
    0.100000000000D+01 0.000000000000D+00-0.102445483208D-07 0.466000000000D+03
    0.363600000000D+05 0.000000000000D+00 0.000000000000D+00 0.000000000000D+00
15 04  2 29 12  0  0.0 0.232741702348D-03 0.522959453519D-11 0.000000000000D+00
    0.890000000000D+02 0.734687500000D+02 0.421088968617D-08-0.111157090939D+01
    0.371038913727D-05 0.866807950661D-02 0.744126737118D-05 0.515371687126D+04
    0.432000000000D+05-0.126659870148D-06 0.247933758714D+01 0.000000000000D+00
    0.968024779261D+00 0.243187500000D+03 0.218210987786D+01-0.800211903466D-08
   -0.178578867098D-11 0.000000000000D+00 0.126000000000D+04 0.000000000000D+00
    0.280000000000D+01 0.000000000000D+00-0.232830643654D-08 0.345000000000D+03
    0.375000000000D+05 0.400000000000D+01 0.000000000000D+00 0.000000000000D+00
16 04  2 29 12  0  0.0 0.152979046106D-04-0.454747350887D-12 0.000000000000D+00
    0.130000000000D+02 0.390625000000D+01 0.475376944215D-08-0.212560287937D+01
    0.253319740295D-06 0.218956312165D-02 0.745989382267D-05 0.515377085877D+04
    0.432000000000D+05-0.372529029846D-08 0.306945376684D+00 0.391155481339D-07
    0.961448614320D+00 0.236531250000D+03-0.149825473527D+01-0.792640159501D-08
    0.101432796512D-09 0.100000000000D+01 0.126000000000D+04 0.000000000000D+00
    0.200000000000D+01 0.000000000000D+00-0.977888703346D-08 0.130000000000D+02
    0.360180000000D+05 0.400000000000D+01 0.000000000000D+00 0.000000000000D+00
17 04  2 29 12  0  0.0 0.206312164664D-03 0.194404492504D-10 0.000000000000D+00
    0.132000000000D+03 0.702500000000D+02 0.427160650099D-08-0.437060809954D+00
    0.369362533093D-05 0.163283455186D-01 0.633671879768D-05 0.515358459282D+04
    0.432000000000D+05 0.303611159325D-06 0.252086704162D+01 0.132247805595D-06
    0.970084819538D+00 0.264593750000D+03-0.281121707854D+01-0.819498421113D-08
   -0.129648257513D-09 0.000000000000D+00 0.126000000000D+04 0.000000000000D+00
    0.200000000000D+01 0.000000000000D+00-0.139698386192D-08 0.132000000000D+03
    0.360000000000D+05 0.400000000000D+01 0.000000000000D+00 0.000000000000D+00
